[{"OBJECT_NAME":"PROTOMETHEE","OBJECT_ID":"2023-174BT","EPOCH":"2026-03-09T23:28:08.029344","MEAN_MOTION":15.30202663,"ECCENTRICITY":0.00088339,"INCLINATION":97.3826,"RA_OF_ASC_NODE":147.9552,"ARG_OF_PERICENTER":148.5993,"MEAN_ANOMALY":211.5776,"EPHEMERIS_TYPE":0,"CLASSIFICATION_TYPE":"U","NORAD_CAT_ID":58321,"ELEMENT_SET_NO":999,"REV_AT_EPOCH":12979,"BSTAR":0.00015715731,"MEAN_MOTION_DOT":4.52e-5,"MEAN_MOTION_DDOT":0},{"OBJECT_NAME":"STARLINK-33716","OBJECT_ID":"2025-070AC","EPOCH":"2026-03-09T22:04:04.129536","MEAN_MOTION":15.27596358,"ECCENTRICITY":0.00028956,"INCLINATION":43.0054,"RA_OF_ASC_NODE":258.3221,"ARG_OF_PERICENTER":275.4213,"MEAN_ANOMALY":84.6308,"EPHEMERIS_TYPE":0,"CLASSIFICATION_TYPE":"U","NORAD_CAT_ID":63486,"ELEMENT_SET_NO":999,"REV_AT_EPOCH":5301,"BSTAR":0.0013567653,"MEAN_MOTION_DOT":0.00037283,"MEAN_MOTION_DDOT":0}]
